{
  "norad_id": 58377,
  "name": "STARLINK-30914",
  "history": [
    {
      "epoch": "2026-03-28T21:26:48.155424",
      "apogee_km": 476.0348987030902,
      "perigee_km": 474.46547303752595,
      "latitude_deg": -46.09239961449631,
      "longitude_deg": 103.48683936009184,
      "semi_major_axis_km": 6853.387185870308,
      "eccentricity": 0.0001145,
      "inclination_deg": 53.1603,
      "raan_deg": 271.717,
      "arg_perigee_deg": 98.1895,
      "mean_anomaly_deg": 261.9236,
      "mean_motion_rev_day": 15.30188239
    }
  ]
}